[
    {
        "Altitude(m)": 607897.6133915609,
        "Argument of Periapsis(deg)": 0.0,
        "Eccentricity": 0.0,
        "Inclination(deg)": 60.0,
        "Latitude(deg)": -14.292927508286313,
        "Longitude(deg)": 151.61873564501067,
        "Mean Anomaly(deg)": -16.363600000000087,
        "RAAN(deg)": 260.0,
        "Satellite Name": "Test1 1165",
        "Satellite Number": 1165,
        "Semi-Major Axis(m)": 6980739.136638005,
        "Time(s)": 0
    },
    {
        "Altitude(m)": 607750.8147864596,
        "Argument of Periapsis(deg)": 0.00010418945913296404,
        "Eccentricity": 0.0,
        "Inclination(deg)": 60.0,
        "Latitude(deg)": -13.758769295499954,
        "Longitude(deg)": 151.90580532020383,
        "Mean Anomaly(deg)": -15.743493854538235,
        "RAAN(deg)": 259.99957995086027,
        "Satellite Name": "Test1 1165",
        "Satellite Number": 1165,
        "Semi-Major Axis(m)": 6980739.136638005,
        "Time(s)": 10
    },
    {
        "Altitude(m)": 607606.540460968,
        "Argument of Periapsis(deg)": 0.0002083789182659281,
        "Eccentricity": 0.0,
        "Inclination(deg)": 60.0,
        "Latitude(deg)": -13.224136333854583,
        "Longitude(deg)": 152.19139859389173,
        "Mean Anomaly(deg)": -15.123387709076383,
        "RAAN(deg)": 259.9991599017205,
        "Satellite Name": "Test1 1165",
        "Satellite Number": 1165,
        "Semi-Major Axis(m)": 6980739.136638005,
        "Time(s)": 20
    },
    {
        "Altitude(m)": 607464.8347871756,
        "Argument of Periapsis(deg)": 0.00031256837739889213,
        "Eccentricity": 0.0,
        "Inclination(deg)": 60.0,
        "Latitude(deg)": -12.689048927934968,
        "Longitude(deg)": 152.4755801454567,
        "Mean Anomaly(deg)": -14.503281563614578,
        "RAAN(deg)": 259.9987398525808,
        "Satellite Name": "Test1 1165",
        "Satellite Number": 1165,
        "Semi-Major Axis(m)": 6980739.136638005,
        "Time(s)": 30
    },
    {
        "Altitude(m)": 607325.740860091,
        "Argument of Periapsis(deg)": 0.0004167578365318562,
        "Eccentricity": 0.0,
        "Inclination(deg)": 60.0,
        "Latitude(deg)": -12.153527109779988,
        "Longitude(deg)": 152.75841431163067,
        "Mean Anomaly(deg)": -13.883175418152726,
        "RAAN(deg)": 259.998319803441,
        "Satellite Name": "Test1 1165",
        "Satellite Number": 1165,
        "Semi-Major Axis(m)": 6980739.136638005,
        "Time(s)": 40
    },
    {
        "Altitude(m)": 607189.3004793202,
        "Argument of Periapsis(deg)": 0.0005209472956648203,
        "Eccentricity": 0.0,
        "Inclination(deg)": 60.0,
        "Latitude(deg)": -11.617590652822786,
        "Longitude(deg)": 153.03996411802953,
        "Mean Anomaly(deg)": -13.263069272690874,
        "RAAN(deg)": 259.9978997543013,
        "Satellite Name": "Test1 1165",
        "Satellite Number": 1165,
        "Semi-Major Axis(m)": 6980739.136638005,
        "Time(s)": 50
    },
    {
        "Altitude(m)": 607055.5541313762,
        "Argument of Periapsis(deg)": 0.0006251367547977843,
        "Eccentricity": 0.0,
        "Inclination(deg)": 60.0,
        "Latitude(deg)": -11.081259085477406,
        "Longitude(deg)": 153.32029182288284,
        "Mean Anomaly(deg)": -12.642963127229018,
        "RAAN(deg)": 259.99747970516154,
        "Satellite Name": "Test1 1165",
        "Satellite Number": 1165,
        "Semi-Major Axis(m)": 6980739.136638005,
        "Time(s)": 60
    },
    {
        "Altitude(m)": 606924.5409726116,
        "Argument of Periapsis(deg)": 0.0007293262139307483,
        "Eccentricity": 0.0,
        "Inclination(deg)": 60.0,
        "Latitude(deg)": -10.544551704389217,
        "Longitude(deg)": 153.5994594601171,
        "Mean Anomaly(deg)": -12.02285698176722,
        "RAAN(deg)": 259.9970596560218,
        "Satellite Name": "Test1 1165",
        "Satellite Number": 1165,
        "Semi-Major Axis(m)": 6980739.136638005,
        "Time(s)": 70
    },
    {
        "Altitude(m)": 606796.2988128504,
        "Argument of Periapsis(deg)": 0.0008335156730637124,
        "Eccentricity": 0.0,
        "Inclination(deg)": 60.0,
        "Latitude(deg)": -10.007487587364585,
        "Longitude(deg)": 153.87752786894714,
        "Mean Anomaly(deg)": -11.402750836305364,
        "RAAN(deg)": 259.99663960688207,
        "Satellite Name": "Test1 1165",
        "Satellite Number": 1165,
        "Semi-Major Axis(m)": 6980739.136638005,
        "Time(s)": 80
    },
    {
        "Altitude(m)": 606670.8640995898,
        "Argument of Periapsis(deg)": 0.0009377051321966765,
        "Eccentricity": 0.0,
        "Inclination(deg)": 60.0,
        "Latitude(deg)": -9.47008560600314,
        "Longitude(deg)": 154.15455723575045,
        "Mean Anomaly(deg)": -10.782644690843513,
        "RAAN(deg)": 259.99621955774234,
        "Satellite Name": "Test1 1165",
        "Satellite Number": 1165,
        "Semi-Major Axis(m)": 6980739.136638005,
        "Time(s)": 90
    },
    {
        "Altitude(m)": 606548.2719029444,
        "Argument of Periapsis(deg)": 0.0010418945913296407,
        "Eccentricity": 0.0,
        "Inclination(deg)": 60.0,
        "Latitude(deg)": -8.932364438046928,
        "Longitude(deg)": 154.43060763538196,
        "Mean Anomaly(deg)": -10.16253854538166,
        "RAAN(deg)": 259.99579950860254,
        "Satellite Name": "Test1 1165",
        "Satellite Number": 1165,
        "Semi-Major Axis(m)": 6980739.136638005,
        "Time(s)": 100
    },
    {
        "Altitude(m)": 606428.5559012115,
        "Argument of Periapsis(deg)": 0.0011460840504626045,
        "Eccentricity": 0.0,
        "Inclination(deg)": 60.0,
        "Latitude(deg)": -8.394342579461698,
        "Longitude(deg)": 154.7057380590835,
        "Mean Anomaly(deg)": -9.542432399919857,
        "RAAN(deg)": 259.99537945946287,
        "Satellite Name": "Test1 1165",
        "Satellite Number": 1165,
        "Semi-Major Axis(m)": 6980739.136638005,
        "Time(s)": 110
    },
    {
        "Altitude(m)": 606311.7483671597,
        "Argument of Periapsis(deg)": 0.0012502735095955685,
        "Eccentricity": 0.0,
        "Inclination(deg)": 60.0,
        "Latitude(deg)": -7.856038356271295,
        "Longitude(deg)": 154.98000695476563,
        "Mean Anomaly(deg)": -8.922326254458003,
        "RAAN(deg)": 259.9949594103231,
        "Satellite Name": "Test1 1165",
        "Satellite Number": 1165,
        "Semi-Major Axis(m)": 6980739.136638005,
        "Time(s)": 120
    },
    {
        "Altitude(m)": 606197.8801549524,
        "Argument of Periapsis(deg)": 0.0013544629687285324,
        "Eccentricity": 0.0,
        "Inclination(deg)": 60.0,
        "Latitude(deg)": -7.317469936159809,
        "Longitude(deg)": 155.25347276681595,
        "Mean Anomaly(deg)": -8.302220108996252,
        "RAAN(deg)": 259.99453936118334,
        "Satellite Name": "Test1 1165",
        "Satellite Number": 1165,
        "Semi-Major Axis(m)": 6980739.136638005,
        "Time(s)": 130
    },
    {
        "Altitude(m)": 606086.9806878131,
        "Argument of Periapsis(deg)": 0.0014586524278614966,
        "Eccentricity": 0.0,
        "Inclination(deg)": 60.0,
        "Latitude(deg)": -6.778655339853602,
        "Longitude(deg)": 155.52619296259215,
        "Mean Anomaly(deg)": -7.6821139635344,
        "RAAN(deg)": 259.9941193120436,
        "Satellite Name": "Test1 1165",
        "Satellite Number": 1165,
        "Semi-Major Axis(m)": 6980739.136638005,
        "Time(s)": 140
    },
    {
        "Altitude(m)": 605979.0779463759,
        "Argument of Periapsis(deg)": 0.0015628418869944607,
        "Eccentricity": 0.0,
        "Inclination(deg)": 60.0,
        "Latitude(deg)": -6.239612452305495,
        "Longitude(deg)": 155.79822457137334,
        "Mean Anomaly(deg)": -7.062007818072598,
        "RAAN(deg)": 259.9936992629039,
        "Satellite Name": "Test1 1165",
        "Satellite Number": 1165,
        "Semi-Major Axis(m)": 6980739.136638005,
        "Time(s)": 150
    },
    {
        "Altitude(m)": 605874.1984577286,
        "Argument of Periapsis(deg)": 0.0016670313461274247,
        "Eccentricity": 0.0,
        "Inclination(deg)": 60.0,
        "Latitude(deg)": -5.7003590336919725,
        "Longitude(deg)": 156.06962472292773,
        "Mean Anomaly(deg)": -6.4419016726107445,
        "RAAN(deg)": 259.99327921376414,
        "Satellite Name": "Test1 1165",
        "Satellite Number": 1165,
        "Semi-Major Axis(m)": 6980739.136638005,
        "Time(s)": 160
    },
    {
        "Altitude(m)": 605772.3672851885,
        "Argument of Periapsis(deg)": 0.0017712208052603888,
        "Eccentricity": 0.0,
        "Inclination(deg)": 60.0,
        "Latitude(deg)": -5.1609127302378015,
        "Longitude(deg)": 156.3404496728517,
        "Mean Anomaly(deg)": -5.821795527148994,
        "RAAN(deg)": 259.9928591646244,
        "Satellite Name": "Test1 1165",
        "Satellite Number": 1165,
        "Semi-Major Axis(m)": 6980739.136638005,
        "Time(s)": 170
    },
    {
        "Altitude(m)": 605673.6080187875,
        "Argument of Periapsis(deg)": 0.001875410264393353,
        "Eccentricity": 0.0,
        "Inclination(deg)": 60.0,
        "Latitude(deg)": -4.621291084885863,
        "Longitude(deg)": 156.61075534045565,
        "Mean Anomaly(deg)": -5.20168938168714,
        "RAAN(deg)": 259.9924391154846,
        "Satellite Name": "Test1 1165",
        "Satellite Number": 1165,
        "Semi-Major Axis(m)": 6980739.136638005,
        "Time(s)": 180
    },
    {
        "Altitude(m)": 605577.942766492,
        "Argument of Periapsis(deg)": 0.0019795997235263173,
        "Eccentricity": 0.0,
        "Inclination(deg)": 60.0,
        "Latitude(deg)": -4.081511547826378,
        "Longitude(deg)": 156.8805978463534,
        "Mean Anomaly(deg)": -4.581583236225338,
        "RAAN(deg)": 259.99201906634494,
        "Satellite Name": "Test1 1165",
        "Satellite Number": 1165,
        "Semi-Major Axis(m)": 6980739.136638005,
        "Time(s)": 190
    }
]